{
  "type": "FeatureCollection",
  "features": [
    {
      "type": "Feature",
      "properties": {
        "norad_id": 43602,
        "name": "BEIDOU-3 M12 (C26)",
        "group": "beidou",
        "lat": 4.283975389983653,
        "lon": -169.46974857468362,
        "alt_km": 21507.373442967273,
        "timestamp": "2025-12-10T23:33:13.083925+00:00",
        "meta_object_name": "BEIDOU-3 M12 (C26)",
        "meta_object_id": "2018-067A",
        "meta_epoch": "2025-12-09T21:35:26.225376",
        "meta_mean_motion": 1.86227534,
        "meta_eccentricity": 0.00090945,
        "meta_inclination": 54.183,
        "meta_ra_of_asc_node": 187.4598,
        "meta_arg_of_pericenter": 40.6301,
        "meta_mean_anomaly": 319.4946,
        "meta_ephemeris_type": 0,
        "meta_classification_type": "U",
        "meta_norad_cat_id": 43602,
        "meta_element_set_no": 999,
        "meta_rev_at_epoch": 4959,
        "meta_bstar": 0,
        "meta_mean_motion_dot": 5.3e-07,
        "meta_mean_motion_ddot": 0,
        "tle_line1": "1 43602U 18067A   25343.89960909  .00000053  00000+0  00000+0 0  9990",
        "tle_line2": "2 43602  54.1830 187.4598 0009094  40.6301 319.4946  1.86227534 49597"
      },
      "geometry": {
        "type": "Point",
        "coordinates": [
          -169.46974857468362,
          4.283975389983653
        ]
      }
    },
    {
      "type": "Feature",
      "properties": {
        "norad_id": 43603,
        "name": "BEIDOU-3 M11 (C25)",
        "group": "beidou",
        "lat": -53.843446359684464,
        "lon": 106.076661679626,
        "alt_km": 21542.400748771495,
        "timestamp": "2025-12-10T23:33:13.083936+00:00",
        "meta_object_name": "BEIDOU-3 M11 (C25)",
        "meta_object_id": "2018-067B",
        "meta_epoch": "2025-12-07T08:23:01.607424",
        "meta_mean_motion": 1.86227152,
        "meta_eccentricity": 0.0005581,
        "meta_inclination": 54.1802,
        "meta_ra_of_asc_node": 187.5102,
        "meta_arg_of_pericenter": 36.6822,
        "meta_mean_anomaly": 323.425,
        "meta_ephemeris_type": 0,
        "meta_classification_type": "U",
        "meta_norad_cat_id": 43603,
        "meta_element_set_no": 999,
        "meta_rev_at_epoch": 4957,
        "meta_bstar": 0,
        "meta_mean_motion_dot": 6e-07,
        "meta_mean_motion_ddot": 0,
        "tle_line1": "1 43603U 18067B   25341.34932416  .00000060  00000+0  00000+0 0  9999",
        "tle_line2": "2 43603  54.1802 187.5102 0005581  36.6822 323.4250  1.86227152 49576"
      },
      "geometry": {
        "type": "Point",
        "coordinates": [
          106.076661679626,
          -53.843446359684464
        ]
      }
    },
    {
      "type": "Feature",
      "properties": {
        "norad_id": 43622,
        "name": "BEIDOU-3 M13 (C32)",
        "group": "beidou",
        "lat": -43.58494585883759,
        "lon": 29.797040468101518,
        "alt_km": 21517.590259003682,
        "timestamp": "2025-12-10T23:33:13.083946+00:00",
        "meta_object_name": "BEIDOU-3 M13 (C32)",
        "meta_object_id": "2018-072A",
        "meta_epoch": "2025-12-09T10:53:18.929184",
        "meta_mean_motion": 1.86230678,
        "meta_eccentricity": 0.0005617,
        "meta_inclination": 56.4562,
        "meta_ra_of_asc_node": 68.9299,
        "meta_arg_of_pericenter": 299.0719,
        "meta_mean_anomaly": 60.8948,
        "meta_ephemeris_type": 0,
        "meta_classification_type": "U",
        "meta_norad_cat_id": 43622,
        "meta_element_set_no": 999,
        "meta_rev_at_epoch": 4912,
        "meta_bstar": 0,
        "meta_mean_motion_dot": -4.9e-07,
        "meta_mean_motion_ddot": 0,
        "tle_line1": "1 43622U 18072A   25343.45369131 -.00000049  00000+0  00000+0 0  9996",
        "tle_line2": "2 43622  56.4562  68.9299 0005617 299.0719  60.8948  1.86230678 49128"
      },
      "geometry": {
        "type": "Point",
        "coordinates": [
          29.797040468101518,
          -43.58494585883759
        ]
      }
    },
    {
      "type": "Feature",
      "properties": {
        "norad_id": 43623,
        "name": "BEIDOU-3 M14 (C33)",
        "group": "beidou",
        "lat": 28.151465879732083,
        "lon": 89.6421249470973,
        "alt_km": 21520.00885098124,
        "timestamp": "2025-12-10T23:33:13.083957+00:00",
        "meta_object_name": "BEIDOU-3 M14 (C33)",
        "meta_object_id": "2018-072B",
        "meta_epoch": "2025-12-09T20:32:48.153696",
        "meta_mean_motion": 1.86230676,
        "meta_eccentricity": 0.00032187,
        "meta_inclination": 56.4584,
        "meta_ra_of_asc_node": 68.9098,
        "meta_arg_of_pericenter": 335.8461,
        "meta_mean_anomaly": 24.1617,
        "meta_ephemeris_type": 0,
        "meta_classification_type": "U",
        "meta_norad_cat_id": 43623,
        "meta_element_set_no": 999,
        "meta_rev_at_epoch": 4912,
        "meta_bstar": 0,
        "meta_mean_motion_dot": -5.1e-07,
        "meta_mean_motion_ddot": 0,
        "tle_line1": "1 43623U 18072B   25343.85611289 -.00000051  00000+0  00000+0 0  9998",
        "tle_line2": "2 43623  56.4584  68.9098 0003218 335.8461  24.1617  1.86230676 49122"
      },
      "geometry": {
        "type": "Point",
        "coordinates": [
          89.6421249470973,
          28.151465879732083
        ]
      }
    },
    {
      "type": "Feature",
      "properties": {
        "norad_id": 43647,
        "name": "BEIDOU-3 M16 (C35)",
        "group": "beidou",
        "lat": -50.30145497422295,
        "lon": -113.50868085291222,
        "alt_km": 21533.611334929832,
        "timestamp": "2025-12-10T23:33:13.083967+00:00",
        "meta_object_name": "BEIDOU-3 M16 (C35)",
        "meta_object_id": "2018-078A",
        "meta_epoch": "2025-12-08T22:33:41.935680",
        "meta_mean_motion": 1.86232209,
        "meta_eccentricity": 0.0007116,
        "meta_inclination": 54.2656,
        "meta_ra_of_asc_node": 306.6541,
        "meta_arg_of_pericenter": 19.0293,
        "meta_mean_anomaly": 340.9862,
        "meta_ephemeris_type": 0,
        "meta_classification_type": "U",
        "meta_norad_cat_id": 43647,
        "meta_element_set_no": 999,
        "meta_rev_at_epoch": 4861,
        "meta_bstar": 0,
        "meta_mean_motion_dot": -7.5e-07,
        "meta_mean_motion_ddot": 0,
        "tle_line1": "1 43647U 18078A   25342.94006870 -.00000075  00000+0  00000+0 0  9999",
        "tle_line2": "2 43647  54.2656 306.6541 0007116  19.0293 340.9862  1.86232209 48612"
      },
      "geometry": {
        "type": "Point",
        "coordinates": [
          -113.50868085291222,
          -50.30145497422295
        ]
      }
    },
    {
      "type": "Feature",
      "properties": {
        "norad_id": 43648,
        "name": "BEIDOU-3 M15 (C34)",
        "group": "beidou",
        "lat": -17.73315788889826,
        "lon": 139.86912201064118,
        "alt_km": 21540.495068339816,
        "timestamp": "2025-12-10T23:33:13.083978+00:00",
        "meta_object_name": "BEIDOU-3 M15 (C34)",
        "meta_object_id": "2018-078B",
        "meta_epoch": "2025-12-09T14:32:59.144640",
        "meta_mean_motion": 1.86231871,
        "meta_eccentricity": 0.0003622,
        "meta_inclination": 54.2606,
        "meta_ra_of_asc_node": 306.6314,
        "meta_arg_of_pericenter": 18.0065,
        "meta_mean_anomaly": 341.9965,
        "meta_ephemeris_type": 0,
        "meta_classification_type": "U",
        "meta_norad_cat_id": 43648,
        "meta_element_set_no": 999,
        "meta_rev_at_epoch": 4864,
        "meta_bstar": 0,
        "meta_mean_motion_dot": -7.7e-07,
        "meta_mean_motion_ddot": 0,
        "tle_line1": "1 43648U 18078B   25343.60624010 -.00000077  00000+0  00000+0 0  9998",
        "tle_line2": "2 43648  54.2606 306.6314 0003622  18.0065 341.9965  1.86231871 48642"
      },
      "geometry": {
        "type": "Point",
        "coordinates": [
          139.86912201064118,
          -17.73315788889826
        ]
      }
    },
    {
      "type": "Feature",
      "properties": {
        "norad_id": 43683,
        "name": "BEIDOU-3 G1 (C59)",
        "group": "beidou",
        "lat": 2.426660739932066,
        "lon": -146.64219914578618,
        "alt_km": 35780.44554737585,
        "timestamp": "2025-12-10T23:33:13.083989+00:00",
        "meta_object_name": "BEIDOU-3 G1 (C59)",
        "meta_object_id": "2018-085A",
        "meta_epoch": "2025-12-10T06:12:22.341024",
        "meta_mean_motion": 1.00271312,
        "meta_eccentricity": 0.0001857,
        "meta_inclination": 2.6013,
        "meta_ra_of_asc_node": 103.0522,
        "meta_arg_of_pericenter": 65.4692,
        "meta_mean_anomaly": 143.8794,
        "meta_ephemeris_type": 0,
        "meta_classification_type": "U",
        "meta_norad_cat_id": 43683,
        "meta_element_set_no": 999,
        "meta_rev_at_epoch": 2616,
        "meta_bstar": 0,
        "meta_mean_motion_dot": -2.74e-06,
        "meta_mean_motion_ddot": 0,
        "tle_line1": "1 43683U 18085A   25344.25859191 -.00000274  00000+0  00000+0 0  9996",
        "tle_line2": "2 43683   2.6013 103.0522 0001857  65.4692 143.8794  1.00271312 26162"
      },
      "geometry": {
        "type": "Point",
        "coordinates": [
          -146.64219914578618,
          2.426660739932066
        ]
      }
    }
  ]
}